RCM-1                   
1 44322U 19033A   26197.85547836  .00000556  00000+0  59455-4 0  9999
2 44322  97.7604 204.8833 0001510  92.5305  28.5964 14.92588146386503
RCM-3                   
1 44323U 19033B   26197.85555398 -.00000150  00000+0 -91557-5 0  9994
2 44323  97.7604 204.9777 0001529  90.5521 269.5873 14.92586915386520
RCM-2                   
1 44324U 19033C   26197.87776094  .00000200  00000+0  24905-4 0  9991
2 44324  97.7605 204.9500 0001536  91.5837 268.5558 14.92588254386511
