{"fetched_at":"2026-07-17T06:38:33.197Z","source":"https://celestrak.org/NORAD/elements/gp.php?NAME=RCM&FORMAT=JSON","constellation":"rcm","records":[{"OBJECT_NAME":"RCM-1","OBJECT_ID":"2019-033A","EPOCH":"2026-07-16T20:31:53.330304","CLASSIFICATION_TYPE":"U","MEAN_MOTION":14.92588146,"ECCENTRICITY":0.000151,"INCLINATION":97.7604,"RA_OF_ASC_NODE":204.8833,"ARG_OF_PERICENTER":92.5305,"MEAN_ANOMALY":28.5964,"EPHEMERIS_TYPE":0,"NORAD_CAT_ID":44322,"ELEMENT_SET_NO":999,"REV_AT_EPOCH":38650,"BSTAR":0.000059455,"MEAN_MOTION_DOT":0.00000556,"MEAN_MOTION_DDOT":0},{"OBJECT_NAME":"RCM-3","OBJECT_ID":"2019-033B","EPOCH":"2026-07-16T20:31:59.863872","CLASSIFICATION_TYPE":"U","MEAN_MOTION":14.92586915,"ECCENTRICITY":0.0001529,"INCLINATION":97.7604,"RA_OF_ASC_NODE":204.9777,"ARG_OF_PERICENTER":90.5521,"MEAN_ANOMALY":269.5873,"EPHEMERIS_TYPE":0,"NORAD_CAT_ID":44323,"ELEMENT_SET_NO":999,"REV_AT_EPOCH":38652,"BSTAR":-0.0000091557,"MEAN_MOTION_DOT":-0.0000015,"MEAN_MOTION_DDOT":0},{"OBJECT_NAME":"RCM-2","OBJECT_ID":"2019-033C","EPOCH":"2026-07-16T21:03:58.545216","CLASSIFICATION_TYPE":"U","MEAN_MOTION":14.92588254,"ECCENTRICITY":0.0001536,"INCLINATION":97.7605,"RA_OF_ASC_NODE":204.95,"ARG_OF_PERICENTER":91.5837,"MEAN_ANOMALY":268.5558,"EPHEMERIS_TYPE":0,"NORAD_CAT_ID":44324,"ELEMENT_SET_NO":999,"REV_AT_EPOCH":38651,"BSTAR":0.000024905,"MEAN_MOTION_DOT":0.000002,"MEAN_MOTION_DDOT":0}]}
